[{"OBJECT_NAME":"OBJECT B","OBJECT_ID":"2024-153B","EPOCH":"2026-03-09T23:15:18.632160","MEAN_MOTION":15.30512917,"ECCENTRICITY":0.00113423,"INCLINATION":97.6622,"RA_OF_ASC_NODE":204.9195,"ARG_OF_PERICENTER":149.8438,"MEAN_ANOMALY":210.3457,"EPHEMERIS_TYPE":0,"CLASSIFICATION_TYPE":"U","NORAD_CAT_ID":60746,"ELEMENT_SET_NO":999,"REV_AT_EPOCH":8476,"BSTAR":0.00066193599,"MEAN_MOTION_DOT":0.00019515,"MEAN_MOTION_DDOT":0},{"OBJECT_NAME":"STARLINK-35540","OBJECT_ID":"2025-240F","EPOCH":"2026-03-09T07:09:25.456320","MEAN_MOTION":15.30192894,"ECCENTRICITY":0.00012047,"INCLINATION":53.1601,"RA_OF_ASC_NODE":64.266,"ARG_OF_PERICENTER":99.8588,"MEAN_ANOMALY":260.2549,"EPHEMERIS_TYPE":0,"CLASSIFICATION_TYPE":"U","NORAD_CAT_ID":66151,"ELEMENT_SET_NO":999,"REV_AT_EPOCH":2193,"BSTAR":0.00087397443,"MEAN_MOTION_DOT":0.00025609,"MEAN_MOTION_DDOT":0}]
